YOTSUBA-KULOVER         
1 65941U 98067XN  26064.21355566  .00206402  00000+0  11390-2 0  9995
2 65941  51.6207  80.4741 0006006  39.9520 320.1922 15.78483235 22797
BOTAN                   
1 65942U 98067XP  26062.30429370  .04760636  12041-4  14503-2 0  9999
2 65942  51.6040  82.5602 0002926  46.9281 313.1984 16.26065139 22592
E-KAGAKU-1              
1 65943U 98067XQ  26064.21711258  .00195636  00000+0  10949-2 0  9996
2 65943  51.6242  80.5167 0006194  46.2025 313.9487 15.78200281 22794
HRC MONOBLOCK CAMERA    
1 66052U 98067XR  26064.22167719  .00056203  00000+0  64141-3 0  9996
2 66052  51.6269  88.0738 0003456  70.8864 289.2504 15.61646282 21694
HTV-X1                  
1 66174U 25241A   26064.25394533  .00008604  00000+0  16717-3 0  9992
2 66174  51.6314  94.2866 0008160 158.8383 201.2944 15.48454548554477
SZ-21 MODULE            
1 66515U 25246C   26064.17031800  .00041059  00000+0  35896-3 0  9992
2 66515  41.4734 231.1730 0001468 290.3140  69.7543 15.68139607 17360
SHENZHOU-22             
1 66645U 25272A   26063.91577053  .00022117  00000+0  26479-3 0  9992
2 66645  41.4655 237.2033 0006803 243.7897 116.2243 15.60409426267529
SOYUZ-MS 28             
1 66664U 25275A   26064.25394533  .00008604  00000+0  16717-3 0  9993
2 66664  51.6314  94.2866 0008160 158.8383 201.2944 15.48454548554527
DUPLEX                  
1 66906U 98067XS  26063.38398991  .00042212  00000+0  60284-3 0  9997
2 66906  51.6284  95.9816 0002074  91.8511 268.2718 15.55826494 14302
ISS OBJECT XT           
1 66907U 98067XT  26064.25023443  .00151937  00000+0  13384-2 0  9995
2 66907  51.6250  88.2545 0004658  50.5727 309.5681 15.67725621 14481
ISS OBJECT XU           
1 66908U 98067XU  26063.29254613  .00190633  00000+0  16845-2 0  9995
2 66908  51.6245  93.1068 0004676  47.0078 313.1309 15.67514512 14338
SILVERSAT               
1 66909U 98067XV  26064.25757578  .00191073  00000+0  15020-2 0  9994
2 66909  51.6245  87.5489 0005476  49.7289 310.4186 15.70352988 14496
